[
    {
        "Altitude(m)": 611965.1672732387,
        "Argument of Periapsis(deg)": 0.0,
        "Eccentricity": 0.0,
        "Inclination(deg)": 60.0,
        "Latitude(deg)": 59.14010675092285,
        "Longitude(deg)": -91.03017329618227,
        "Mean Anomaly(deg)": -278.1818,
        "RAAN(deg)": 295.00000000000006,
        "Satellite Name": "Test1 1303",
        "Satellite Number": 1303,
        "Semi-Major Axis(m)": 6980739.136638005,
        "Time(s)": 0
    },
    {
        "Altitude(m)": 611995.7927961226,
        "Argument of Periapsis(deg)": 0.00010418945913296404,
        "Eccentricity": 0.0,
        "Inclination(deg)": 60.0,
        "Latitude(deg)": 59.283206644421796,
        "Longitude(deg)": -89.8968128876768,
        "Mean Anomaly(deg)": -277.5616938545382,
        "RAAN(deg)": 294.99957995086027,
        "Satellite Name": "Test1 1303",
        "Satellite Number": 1303,
        "Semi-Major Axis(m)": 6980739.136638005,
        "Time(s)": 10
    }
]